{
  "links" : {
    "next" : "https://api.nasa.gov/neo/rest/v1/neo/browse?page=17&size=20&api_key=jqAGvNAwUIBu4fl9FSOjdm3V4F7hIglRzI6pdX9d",
    "prev" : "https://api.nasa.gov/neo/rest/v1/neo/browse?page=15&size=20&api_key=jqAGvNAwUIBu4fl9FSOjdm3V4F7hIglRzI6pdX9d",
    "self" : "https://api.nasa.gov/neo/rest/v1/neo/browse?page=16&size=20&api_key=jqAGvNAwUIBu4fl9FSOjdm3V4F7hIglRzI6pdX9d"
  },
  "page" : {
    "size" : 20,
    "total_elements" : 20750,
    "total_pages" : 1038,
    "number" : 16
  },
  "near_earth_objects" : [ {
    "links" : {
      "self" : "https://api.nasa.gov/neo/rest/v1/neo/3249035?api_key=jqAGvNAwUIBu4fl9FSOjdm3V4F7hIglRzI6pdX9d"
    },
    "neo_reference_id" : "3249035",
    "name" : "(2004 PJ)",
    "designation" : "2004 PJ",
    "nasa_jpl_url" : "http://ssd.jpl.nasa.gov/sbdb.cgi?sstr=3249035",
    "absolute_magnitude_h" : 22.8,
    "estimated_diameter" : {
      "kilometers" : {
        "estimated_diameter_min" : 0.0732073989,
        "estimated_diameter_max" : 0.1636967205
      },
      "meters" : {
        "estimated_diameter_min" : 73.2073989347,
        "estimated_diameter_max" : 163.696720474
      },
      "miles" : {
        "estimated_diameter_min" : 0.0454889547,
        "estimated_diameter_max" : 0.1017163949
      },
      "feet" : {
        "estimated_diameter_min" : 240.181762721,
        "estimated_diameter_max" : 537.0627483999
      }
    },
    "is_potentially_hazardous_asteroid" : false,
    "close_approach_data" : [ {
      "close_approach_date" : "2004-07-21",
      "epoch_date_close_approach" : 1090393200000,
      "relative_velocity" : {
        "kilometers_per_second" : "7.6031342808",
        "kilometers_per_hour" : "27371.2834109607",
        "miles_per_hour" : "17007.4510727716"
      },
      "miss_distance" : {
        "astronomical" : "0.0614289137",
        "lunar" : "23.8958473206",
        "kilometers" : "9189635",
        "miles" : "5710174"
      },
      "orbiting_body" : "Earth"
    }, {
      "close_approach_date" : "2119-09-02",
      "epoch_date_close_approach" : 4723081200000,
      "relative_velocity" : {
        "kilometers_per_second" : "21.0004008709",
        "kilometers_per_hour" : "75601.4431350859",
        "miles_per_hour" : "46975.7967080205"
      },
      "miss_distance" : {
        "astronomical" : "0.4944258516",
        "lunar" : "192.3316650391",
        "kilometers" : "73965056",
        "miles" : "45959756"
      },
      "orbiting_body" : "Earth"
    }, {
      "close_approach_date" : "2136-08-24",
      "epoch_date_close_approach" : 5258847600000,
      "relative_velocity" : {
        "kilometers_per_second" : "16.7059330008",
        "kilometers_per_hour" : "60141.358802713",
        "miles_per_hour" : "37369.5015293857"
      },
      "miss_distance" : {
        "astronomical" : "0.3490361392",
        "lunar" : "135.7750549316",
        "kilometers" : "52215060",
        "miles" : "32444936"
      },
      "orbiting_body" : "Earth"
    } ],
    "orbital_data" : {
      "orbit_id" : "16",
      "orbit_determination_date" : "2017-04-06 09:12:32",
      "first_observation_date" : "2004-06-14",
      "last_observation_date" : "2004-08-23",
      "data_arc_in_days" : 70,
      "observations_used" : 110,
      "orbit_uncertainty" : "7",
      "minimum_orbit_intersection" : ".0546468",
      "jupiter_tisserand_invariant" : "3.419",
      "epoch_osculation" : "2458600.5",
      "eccentricity" : ".534129895212797",
      "semi_major_axis" : "2.250639116597128",
      "inclination" : "5.406687755834947",
      "ascending_node_longitude" : "139.3054025446765",
      "orbital_period" : "1233.267313077071",
      "perihelion_distance" : "1.048505481087282",
      "perihelion_argument" : "145.5190647911476",
      "aphelion_distance" : "3.452772752106974",
      "perihelion_time" : "2458132.563154476516",
      "mean_anomaly" : "136.5942830092075",
      "mean_motion" : ".2919075176830722",
      "equinox" : "J2000",
      "orbit_class" : {
        "orbit_class_type" : "AMO",
        "orbit_class_range" : "1.017 AU < q (perihelion) < 1.3 AU",
        "orbit_class_description" : "Near-Earth asteroid orbits similar to that of 1221 Amor"
      }
    },
    "is_sentry_object" : false
  }, {
    "links" : {
      "self" : "https://api.nasa.gov/neo/rest/v1/neo/3249532?api_key=jqAGvNAwUIBu4fl9FSOjdm3V4F7hIglRzI6pdX9d"
    },
    "neo_reference_id" : "3249532",
    "name" : "(2004 PS92)",
    "designation" : "2004 PS92",
    "nasa_jpl_url" : "http://ssd.jpl.nasa.gov/sbdb.cgi?sstr=3249532",
    "absolute_magnitude_h" : 18.9,
    "estimated_diameter" : {
      "kilometers" : {
        "estimated_diameter_min" : 0.4411182,
        "estimated_diameter_max" : 0.9863702813
      },
      "meters" : {
        "estimated_diameter_min" : 441.1181999969,
        "estimated_diameter_max" : 986.3702813054
      },
      "miles" : {
        "estimated_diameter_min" : 0.2740980571,
        "estimated_diameter_max" : 0.6129018881
      },
      "feet" : {
        "estimated_diameter_min" : 1447.2382352778,
        "estimated_diameter_max" : 3236.1230737181
      }
    },
    "is_potentially_hazardous_asteroid" : false,
    "close_approach_data" : [ ],
    "orbital_data" : {
      "orbit_id" : "12",
      "orbit_determination_date" : "2017-07-02 06:20:44",
      "first_observation_date" : "2004-08-12",
      "last_observation_date" : "2012-05-09",
      "data_arc_in_days" : 2827,
      "observations_used" : 66,
      "orbit_uncertainty" : "3",
      "minimum_orbit_intersection" : ".521193",
      "jupiter_tisserand_invariant" : "3.105",
      "epoch_osculation" : "2458600.5",
      "eccentricity" : ".4995381447381767",
      "semi_major_axis" : "2.587986514116717",
      "inclination" : "26.38976683067437",
      "ascending_node_longitude" : "326.8227917138234",
      "orbital_period" : "1520.692626810996",
      "perihelion_distance" : "1.295188532247431",
      "perihelion_argument" : "279.5581432680353",
      "aphelion_distance" : "3.880784495986003",
      "perihelion_time" : "2459191.778073411015",
      "mean_anomaly" : "220.0242398265922",
      "mean_motion" : ".2367342312660162",
      "equinox" : "J2000",
      "orbit_class" : {
        "orbit_class_type" : "AMO",
        "orbit_class_range" : "1.017 AU < q (perihelion) < 1.3 AU",
        "orbit_class_description" : "Near-Earth asteroid orbits similar to that of 1221 Amor"
      }
    },
    "is_sentry_object" : false
  }, {
    "links" : {
      "self" : "https://api.nasa.gov/neo/rest/v1/neo/3250108?api_key=jqAGvNAwUIBu4fl9FSOjdm3V4F7hIglRzI6pdX9d"
    },
    "neo_reference_id" : "3250108",
    "name" : "(2004 QR4)",
    "designation" : "2004 QR4",
    "nasa_jpl_url" : "http://ssd.jpl.nasa.gov/sbdb.cgi?sstr=3250108",
    "absolute_magnitude_h" : 26.9,
    "estimated_diameter" : {
      "kilometers" : {
        "estimated_diameter_min" : 0.0110803882,
        "estimated_diameter_max" : 0.0247765013
      },
      "meters" : {
        "estimated_diameter_min" : 11.0803882126,
        "estimated_diameter_max" : 24.7765012606
      },
      "miles" : {
        "estimated_diameter_min" : 0.0068850319,
        "estimated_diameter_max" : 0.0153953994
      },
      "feet" : {
        "estimated_diameter_min" : 36.3529808636,
        "estimated_diameter_max" : 81.2877363957
      }
    },
    "is_potentially_hazardous_asteroid" : false,
    "close_approach_data" : [ {
      "close_approach_date" : "2004-08-23",
      "epoch_date_close_approach" : 1093244400000,
      "relative_velocity" : {
        "kilometers_per_second" : "8.1804487381",
        "kilometers_per_hour" : "29449.6154571624",
        "miles_per_hour" : "18298.8457822574"
      },
      "miss_distance" : {
        "astronomical" : "0.0158020778",
        "lunar" : "6.147008419",
        "kilometers" : "2363957.25",
        "miles" : "1468894.875"
      },
      "orbiting_body" : "Earth"
    } ],
    "orbital_data" : {
      "orbit_id" : "6",
      "orbit_determination_date" : "2017-04-06 09:12:27",
      "first_observation_date" : "2004-08-20",
      "last_observation_date" : "2004-08-23",
      "data_arc_in_days" : 3,
      "observations_used" : 14,
      "orbit_uncertainty" : "8",
      "minimum_orbit_intersection" : ".0057357",
      "jupiter_tisserand_invariant" : "3.711",
      "epoch_osculation" : "2453238.5",
      "eccentricity" : ".4983736609094233",
      "semi_major_axis" : "1.966657107795334",
      "inclination" : "2.66603043160372",
      "ascending_node_longitude" : "149.2144835989234",
      "orbital_period" : "1007.375526936849",
      "perihelion_distance" : ".9865270052298349",
      "perihelion_argument" : "208.9330335040739",
      "aphelion_distance" : "2.946787210360833",
      "perihelion_time" : "2453263.457490026781",
      "mean_anomaly" : "351.0810852860788",
      "mean_motion" : ".3573642503453112",
      "equinox" : "J2000",
      "orbit_class" : {
        "orbit_class_type" : "APO",
        "orbit_class_range" : "a (semi-major axis) > 1.0 AU; q (perihelion) < 1.017 AU",
        "orbit_class_description" : "Near-Earth asteroid orbits which cross the Earth’s orbit similar to that of 1862 Apollo"
      }
    },
    "is_sentry_object" : false
  } ]
}